{
  "type": "FeatureCollection",
  "features": [
    {
      "type": "Feature",
      "properties": {
        "norad_id": 33986,
        "name": "COSMOS 2251 DEB",
        "group": "cosmos-2251-debris",
        "lat": 8.658035782404633,
        "lon": -45.76524565363119,
        "alt_km": 722.0275242264497,
        "timestamp": "2025-12-07T20:38:14.456755+00:00",
        "meta_object_name": "COSMOS 2251 DEB",
        "meta_object_id": "1993-036FV",
        "meta_epoch": "2025-12-07T00:56:13.645248",
        "meta_mean_motion": 14.43158031,
        "meta_eccentricity": 0.00401584,
        "meta_inclination": 74.0367,
        "meta_ra_of_asc_node": 313.2605,
        "meta_arg_of_pericenter": 27.3202,
        "meta_mean_anomaly": 39.066,
        "meta_ephemeris_type": 0,
        "meta_classification_type": "U",
        "meta_norad_cat_id": 33986,
        "meta_element_set_no": 999,
        "meta_rev_at_epoch": 87946,
        "meta_bstar": 0.00132409,
        "meta_mean_motion_dot": 4.468e-05,
        "meta_mean_motion_ddot": 0,
        "tle_line1": "1 33986U 93036FV  25341.03904682  .00004468  00000+0  13241-2 0  9991",
        "tle_line2": "2 33986  74.0367 313.2605 0040158  27.3202  39.0660 14.43158031879460"
      },
      "geometry": {
        "type": "Point",
        "coordinates": [
          -45.76524565363119,
          8.658035782404633
        ]
      }
    },
    {
      "type": "Feature",
      "properties": {
        "norad_id": 33990,
        "name": "COSMOS 2251 DEB",
        "group": "cosmos-2251-debris",
        "lat": -66.0942935942927,
        "lon": 154.39612147868257,
        "alt_km": 931.6062595089625,
        "timestamp": "2025-12-07T20:38:14.456765+00:00",
        "meta_object_name": "COSMOS 2251 DEB",
        "meta_object_id": "1993-036FZ",
        "meta_epoch": "2025-12-07T03:25:13.252800",
        "meta_mean_motion": 13.49966237,
        "meta_eccentricity": 0.04076061,
        "meta_inclination": 73.9286,
        "meta_ra_of_asc_node": 294.9803,
        "meta_arg_of_pericenter": 316.2952,
        "meta_mean_anomaly": 54.7655,
        "meta_ephemeris_type": 0,
        "meta_classification_type": "U",
        "meta_norad_cat_id": 33990,
        "meta_element_set_no": 999,
        "meta_rev_at_epoch": 82654,
        "meta_bstar": 0.0024920625,
        "meta_mean_motion_dot": 2.632e-05,
        "meta_mean_motion_ddot": 0,
        "tle_line1": "1 33990U 93036FZ  25341.14251450  .00002632  00000+0  24921-2 0  9994",
        "tle_line2": "2 33990  73.9286 294.9803 0407606 316.2952  54.7655 13.49966237826544"
      },
      "geometry": {
        "type": "Point",
        "coordinates": [
          154.39612147868257,
          -66.0942935942927
        ]
      }
    },
    {
      "type": "Feature",
      "properties": {
        "norad_id": 33992,
        "name": "COSMOS 2251 DEB",
        "group": "cosmos-2251-debris",
        "lat": -1.5534132420397866,
        "lon": 167.5945194212802,
        "alt_km": 666.5288485403471,
        "timestamp": "2025-12-07T20:38:14.456775+00:00",
        "meta_object_name": "COSMOS 2251 DEB",
        "meta_object_id": "1993-036GB",
        "meta_epoch": "2025-12-07T00:18:02.215296",
        "meta_mean_motion": 14.66145742,
        "meta_eccentricity": 0.00516315,
        "meta_inclination": 74.024,
        "meta_ra_of_asc_node": 348.7828,
        "meta_arg_of_pericenter": 108.4844,
        "meta_mean_anomaly": 281.783,
        "meta_ephemeris_type": 0,
        "meta_classification_type": "U",
        "meta_norad_cat_id": 33992,
        "meta_element_set_no": 999,
        "meta_rev_at_epoch": 89041,
        "meta_bstar": 0.0011124141,
        "meta_mean_motion_dot": 6.212e-05,
        "meta_mean_motion_ddot": 0,
        "tle_line1": "1 33992U 93036GB  25341.01252564  .00006212  00000+0  11124-2 0  9998",
        "tle_line2": "2 33992  74.0240 348.7828 0051631 108.4844 281.7830 14.66145742890411"
      },
      "geometry": {
        "type": "Point",
        "coordinates": [
          167.5945194212802,
          -1.5534132420397866
        ]
      }
    },
    {
      "type": "Feature",
      "properties": {
        "norad_id": 33994,
        "name": "COSMOS 2251 DEB",
        "group": "cosmos-2251-debris",
        "lat": 7.835838123203806,
        "lon": 17.18333853333065,
        "alt_km": 772.0278095446065,
        "timestamp": "2025-12-07T20:38:14.456784+00:00",
        "meta_object_name": "COSMOS 2251 DEB",
        "meta_object_id": "1993-036GD",
        "meta_epoch": "2025-12-07T02:16:13.834848",
        "meta_mean_motion": 14.41209535,
        "meta_eccentricity": 0.00234557,
        "meta_inclination": 74.0423,
        "meta_ra_of_asc_node": 200.8558,
        "meta_arg_of_pericenter": 336.1891,
        "meta_mean_anomaly": 186.6598,
        "meta_ephemeris_type": 0,
        "meta_classification_type": "U",
        "meta_norad_cat_id": 33994,
        "meta_element_set_no": 999,
        "meta_rev_at_epoch": 88338,
        "meta_bstar": 0.00016011965,
        "meta_mean_motion_dot": 4.92e-06,
        "meta_mean_motion_ddot": 0,
        "tle_line1": "1 33994U 93036GD  25341.09460457  .00000492  00000+0  16012-3 0  9996",
        "tle_line2": "2 33994  74.0423 200.8558 0023455 336.1891 186.6598 14.41209535883385"
      },
      "geometry": {
        "type": "Point",
        "coordinates": [
          17.18333853333065,
          7.835838123203806
        ]
      }
    },
    {
      "type": "Feature",
      "properties": {
        "norad_id": 33995,
        "name": "COSMOS 2251 DEB",
        "group": "cosmos-2251-debris",
        "lat": 0.6857155158486803,
        "lon": 128.4750593548722,
        "alt_km": 813.107399530857,
        "timestamp": "2025-12-07T20:38:14.456794+00:00",
        "meta_object_name": "COSMOS 2251 DEB",
        "meta_object_id": "1993-036GE",
        "meta_epoch": "2025-12-06T19:31:54.930144",
        "meta_mean_motion": 14.34721837,
        "meta_eccentricity": 0.00605998,
        "meta_inclination": 74.061,
        "meta_ra_of_asc_node": 130.1919,
        "meta_arg_of_pericenter": 146.2222,
        "meta_mean_anomaly": 214.2815,
        "meta_ephemeris_type": 0,
        "meta_classification_type": "U",
        "meta_norad_cat_id": 33995,
        "meta_element_set_no": 999,
        "meta_rev_at_epoch": 87434,
        "meta_bstar": 0.0018355082,
        "meta_mean_motion_dot": 5.286e-05,
        "meta_mean_motion_ddot": 0,
        "tle_line1": "1 33995U 93036GE  25340.81383021  .00005286  00000+0  18355-2 0  9994",
        "tle_line2": "2 33995  74.0610 130.1919 0060599 146.2222 214.2815 14.34721837874340"
      },
      "geometry": {
        "type": "Point",
        "coordinates": [
          128.4750593548722,
          0.6857155158486803
        ]
      }
    },
    {
      "type": "Feature",
      "properties": {
        "norad_id": 33999,
        "name": "COSMOS 2251 DEB",
        "group": "cosmos-2251-debris",
        "lat": 25.574636922080312,
        "lon": -111.55680946075391,
        "alt_km": 629.0428752535363,
        "timestamp": "2025-12-07T20:38:14.456804+00:00",
        "meta_object_name": "COSMOS 2251 DEB",
        "meta_object_id": "1993-036GJ",
        "meta_epoch": "2025-12-06T23:28:19.726176",
        "meta_mean_motion": 14.83168777,
        "meta_eccentricity": 0.00445882,
        "meta_inclination": 73.9197,
        "meta_ra_of_asc_node": 242.2657,
        "meta_arg_of_pericenter": 139.5537,
        "meta_mean_anomaly": 220.897,
        "meta_ephemeris_type": 0,
        "meta_classification_type": "U",
        "meta_norad_cat_id": 33999,
        "meta_element_set_no": 999,
        "meta_rev_at_epoch": 89165,
        "meta_bstar": 0.0021717344,
        "meta_mean_motion_dot": 0.00018048,
        "meta_mean_motion_ddot": 0,
        "tle_line1": "1 33999U 93036GJ  25340.97800609  .00018048  00000+0  21717-2 0  9997",
        "tle_line2": "2 33999  73.9197 242.2657 0044588 139.5537 220.8970 14.83168777891650"
      },
      "geometry": {
        "type": "Point",
        "coordinates": [
          -111.55680946075391,
          25.574636922080312
        ]
      }
    },
    {
      "type": "Feature",
      "properties": {
        "norad_id": 34001,
        "name": "COSMOS 2251 DEB",
        "group": "cosmos-2251-debris",
        "lat": 60.44860870062562,
        "lon": 80.24151034407363,
        "alt_km": 764.9284537647573,
        "timestamp": "2025-12-07T20:38:14.456814+00:00",
        "meta_object_name": "COSMOS 2251 DEB",
        "meta_object_id": "1993-036GL",
        "meta_epoch": "2025-12-07T07:26:11.671584",
        "meta_mean_motion": 14.370875,
        "meta_eccentricity": 0.00197079,
        "meta_inclination": 74.0383,
        "meta_ra_of_asc_node": 291.5714,
        "meta_arg_of_pericenter": 13.8142,
        "meta_mean_anomaly": 136.663,
        "meta_ephemeris_type": 0,
        "meta_classification_type": "U",
        "meta_norad_cat_id": 34001,
        "meta_element_set_no": 999,
        "meta_rev_at_epoch": 88068,
        "meta_bstar": 0.00039470326,
        "meta_mean_motion_dot": 1.149e-05,
        "meta_mean_motion_ddot": 0,
        "tle_line1": "1 34001U 93036GL  25341.30985731  .00001149  00000+0  39470-3 0  9990",
        "tle_line2": "2 34001  74.0383 291.5714 0019707  13.8142 136.6630 14.37087500880687"
      },
      "geometry": {
        "type": "Point",
        "coordinates": [
          80.24151034407363,
          60.44860870062562
        ]
      }
    }
  ]
}